STARLINK-36059          
1 66904U 25283AC  25359.25004630 -.02004452  00000+0 -25825-1 0  9990
2 66904  53.1596  11.3578 0001292  75.8889  45.5010 15.61837117  4447
STARLINK-36075          
1 66905U 25283AD  25359.25004630 -.02002655  00000+0 -25798-1 0  9993
2 66905  53.1598  11.3545 0001373  74.8441  48.4615 15.61836701  4448
1998-067XS              
1 66906U 98067XS  25359.22988744  .00028900  00000+0  49047-3 0  9990
2 66906  51.6322  80.4463 0002754 265.4219  94.6456 15.51241036  3555
1998-067XT              
1 66907U 98067XT  25358.44440007  .00067981  00000+0  10726-2 0  9992
2 66907  51.6313  84.2012 0003885 298.2919  61.7678 15.52879993  3433
1998-067XU              
1 66908U 98067XU  25358.44335423  .00067317  00000+0  10586-2 0  9995
2 66908  51.6323  84.1936 0003863 296.7785  63.2809 15.52977314  3438
SILVERSAT               
1 66909U 98067XV  25358.50619156  .00074602  00000+0  11618-2 0  9993
2 66909  51.6310  83.8633 0003824 300.8028  59.2585 15.53202951  3445
1998-067XW              
1 66910U 98067XW  25359.21225716  .00065225  00000+0  10169-2 0  9990
2 66910  51.6308  80.3284 0003836 278.3824  81.6731 15.53228929  3551
1998-067XX              
1 66911U 98067XX  25358.95112796  .00078033  00000+0  11925-2 0  9996
2 66911  51.6305  81.5850 0003529 283.5602  76.4995 15.53703475  3505
1998-067XY              
1 66912U 98067XY  25359.22139750  .00052036  00000+0  84033-3 0  9993
2 66912  51.6320  80.3904 0003873 295.0134  65.0453 15.52348997  3540
2025-284A               
1 66913U 25284A   25357.10748193  .00008748  00000+0  55264-3 0  9992
2 66913  80.4035 116.7336 0013475 259.6514 100.3189 15.08893564  2694
2025-284B               
1 66914U 25284B   25350.28554881  .00008068  00000+0  38445-3 0  9991
2 66914  80.4045 125.2713 0008179 234.9626 125.0834 15.18985981  1668
HULIANWANG DIGUI-105    
1 66915U 25285A   25359.30362256  .00000040  00000+0  12125-3 0  9997
2 66915  50.0055  66.1116 0008119 324.6615  35.3750 14.03719920  2675
